[{"OBJECT_NAME":"GPS BIIR-08","OBJECT_ID":"2003-005A","EPOCH":"2026-03-05T09:57:48.106368","MEAN_MOTION":2.00566237,"ECCENTRICITY":0.0148737,"INCLINATION":54.9071,"RA_OF_ASC_NODE":219.0894,"ARG_OF_PERICENTER":52.7243,"MEAN_ANOMALY":318.2187,"EPHEMERIS_TYPE":0,"CLASSIFICATION_TYPE":"U","NORAD_CAT_ID":27663,"ELEMENT_SET_NO":999,"REV_AT_EPOCH":16923,"BSTAR":0,"MEAN_MOTION_DOT":9.0e-8,"MEAN_MOTION_DDOT":0},{"OBJECT_NAME":"GPS BIIR-11","OBJECT_ID":"2004-009A","EPOCH":"2026-03-05T08:25:27.111072","MEAN_MOTION":2.00558092,"ECCENTRICITY":0.0111001,"INCLINATION":54.9151,"RA_OF_ASC_NODE":279.8814,"ARG_OF_PERICENTER":169.0892,"MEAN_ANOMALY":311.4248,"EPHEMERIS_TYPE":0,"CLASSIFICATION_TYPE":"U","NORAD_CAT_ID":28190,"ELEMENT_SET_NO":999,"REV_AT_EPOCH":16086,"BSTAR":0,"MEAN_MOTION_DOT":-2.3e-7,"MEAN_MOTION_DDOT":0},{"OBJECT_NAME":"GPS BIIR-13","OBJECT_ID":"2004-045A","EPOCH":"2026-03-05T08:13:28.498944","MEAN_MOTION":2.00573478,"ECCENTRICITY":0.0170827,"INCLINATION":55.1942,"RA_OF_ASC_NODE":329.0814,"ARG_OF_PERICENTER":312.8671,"MEAN_ANOMALY":225.0992,"EPHEMERIS_TYPE":0,"CLASSIFICATION_TYPE":"U","NORAD_CAT_ID":28474,"ELEMENT_SET_NO":999,"REV_AT_EPOCH":15634,"BSTAR":0,"MEAN_MOTION_DOT":-9.4e-7,"MEAN_MOTION_DDOT":0},{"OBJECT_NAME":"GPS BIIR-14M","OBJECT_ID":"2005-038A","EPOCH":"2026-03-05T15:49:50.067264","MEAN_MOTION":2.00572953,"ECCENTRICITY":0.0128771,"INCLINATION":54.962,"RA_OF_ASC_NODE":277.3543,"ARG_OF_PERICENTER":295.3628,"MEAN_ANOMALY":71.8248,"EPHEMERIS_TYPE":0,"CLASSIFICATION_TYPE":"U","NORAD_CAT_ID":28874,"ELEMENT_SET_NO":999,"REV_AT_EPOCH":14976,"BSTAR":0,"MEAN_MOTION_DOT":-2.0e-7,"MEAN_MOTION_DDOT":0},{"OBJECT_NAME":"METEOSAT-9 (MSG-2)","OBJECT_ID":"2005-049B","EPOCH":"2026-03-05T14:12:55.418112","MEAN_MOTION":1.00277983,"ECCENTRICITY":0.0001671,"INCLINATION":9.1276,"RA_OF_ASC_NODE":55.1704,"ARG_OF_PERICENTER":223.3348,"MEAN_ANOMALY":143.8053,"EPHEMERIS_TYPE":0,"CLASSIFICATION_TYPE":"U","NORAD_CAT_ID":28912,"ELEMENT_SET_NO":999,"REV_AT_EPOCH":596,"BSTAR":0,"MEAN_MOTION_DOT":1.19e-6,"MEAN_MOTION_DDOT":0},{"OBJECT_NAME":"GPS BIIR-16M","OBJECT_ID":"2006-052A","EPOCH":"2026-03-05T05:03:51.163776","MEAN_MOTION":2.0055171,"ECCENTRICITY":0.0087858,"INCLINATION":54.9569,"RA_OF_ASC_NODE":218.1252,"ARG_OF_PERICENTER":89.3737,"MEAN_ANOMALY":271.5836,"EPHEMERIS_TYPE":0,"CLASSIFICATION_TYPE":"U","NORAD_CAT_ID":29601,"ELEMENT_SET_NO":999,"REV_AT_EPOCH":14132,"BSTAR":0,"MEAN_MOTION_DOT":7.0e-8,"MEAN_MOTION_DDOT":0},{"OBJECT_NAME":"GPS BIIR-17M","OBJECT_ID":"2007-047A","EPOCH":"2026-03-05T00:27:38.494656","MEAN_MOTION":2.00560713,"ECCENTRICITY":0.01636084,"INCLINATION":54.0162,"RA_OF_ASC_NODE":84.358,"ARG_OF_PERICENTER":85.964,"MEAN_ANOMALY":275.961,"EPHEMERIS_TYPE":0,"CLASSIFICATION_TYPE":"U","NORAD_CAT_ID":32260,"ELEMENT_SET_NO":999,"REV_AT_EPOCH":13472,"BSTAR":0,"MEAN_MOTION_DOT":-8.0e-8,"MEAN_MOTION_DDOT":0},{"OBJECT_NAME":"GPS BIIR-18M","OBJECT_ID":"2007-062A","EPOCH":"2026-03-05T08:05:38.584032","MEAN_MOTION":2.00553612,"ECCENTRICITY":0.0032949,"INCLINATION":55.1141,"RA_OF_ASC_NODE":278.326,"ARG_OF_PERICENTER":160.6805,"MEAN_ANOMALY":197.0086,"EPHEMERIS_TYPE":0,"CLASSIFICATION_TYPE":"U","NORAD_CAT_ID":32384,"ELEMENT_SET_NO":999,"REV_AT_EPOCH":13342,"BSTAR":0,"MEAN_MOTION_DOT":-2.1e-7,"MEAN_MOTION_DDOT":0},{"OBJECT_NAME":"GOES 14","OBJECT_ID":"2009-033A","EPOCH":"2026-03-05T14:57:13.668768","MEAN_MOTION":1.00099736,"ECCENTRICITY":0.0001785,"INCLINATION":1.4225,"RA_OF_ASC_NODE":84.4036,"ARG_OF_PERICENTER":254.2785,"MEAN_ANOMALY":250.0824,"EPHEMERIS_TYPE":0,"CLASSIFICATION_TYPE":"U","NORAD_CAT_ID":35491,"ELEMENT_SET_NO":999,"REV_AT_EPOCH":555,"BSTAR":0,"MEAN_MOTION_DOT":1.18e-6,"MEAN_MOTION_DDOT":0},{"OBJECT_NAME":"GOES 15","OBJECT_ID":"2010-008A","EPOCH":"2026-03-05T16:00:37.591200","MEAN_MOTION":1.00269602,"ECCENTRICITY":0.000198,"INCLINATION":1.012,"RA_OF_ASC_NODE":85.1222,"ARG_OF_PERICENTER":18.8258,"MEAN_ANOMALY":3.0758,"EPHEMERIS_TYPE":0,"CLASSIFICATION_TYPE":"U","NORAD_CAT_ID":36411,"ELEMENT_SET_NO":999,"REV_AT_EPOCH":5860,"BSTAR":0,"MEAN_MOTION_DOT":1.4e-7,"MEAN_MOTION_DDOT":0},{"OBJECT_NAME":"GSAT0101 (GALILEO-PFM)","OBJECT_ID":"2011-060A","EPOCH":"2026-02-22T11:08:37.810464","MEAN_MOTION":1.70475478,"ECCENTRICITY":0.00039756,"INCLINATION":57.0318,"RA_OF_ASC_NODE":344.8758,"ARG_OF_PERICENTER":357.0591,"MEAN_ANOMALY":2.9533,"EPHEMERIS_TYPE":0,"CLASSIFICATION_TYPE":"U","NORAD_CAT_ID":37846,"ELEMENT_SET_NO":999,"REV_AT_EPOCH":8916,"BSTAR":0,"MEAN_MOTION_DOT":-8.2e-7,"MEAN_MOTION_DDOT":0},{"OBJECT_NAME":"GSAT0102 (GALILEO-FM2)","OBJECT_ID":"2011-060B","EPOCH":"2026-03-01T01:30:59.316192","MEAN_MOTION":1.70475778,"ECCENTRICITY":0.00054225,"INCLINATION":57.0301,"RA_OF_ASC_NODE":344.6971,"ARG_OF_PERICENTER":341.2092,"MEAN_ANOMALY":154.1953,"EPHEMERIS_TYPE":0,"CLASSIFICATION_TYPE":"U","NORAD_CAT_ID":37847,"ELEMENT_SET_NO":999,"REV_AT_EPOCH":8928,"BSTAR":0,"MEAN_MOTION_DOT":-1.06e-6,"MEAN_MOTION_DDOT":0},{"OBJECT_NAME":"LUCH 5A","OBJECT_ID":"2011-074B","EPOCH":"2026-03-05T07:56:45.103776","MEAN_MOTION":1.00275722,"ECCENTRICITY":0.0003934,"INCLINATION":8.4896,"RA_OF_ASC_NODE":75.3325,"ARG_OF_PERICENTER":246.3674,"MEAN_ANOMALY":127.6589,"EPHEMERIS_TYPE":0,"CLASSIFICATION_TYPE":"U","NORAD_CAT_ID":37951,"ELEMENT_SET_NO":999,"REV_AT_EPOCH":5201,"BSTAR":0,"MEAN_MOTION_DOT":-5.2e-7,"MEAN_MOTION_DDOT":0},{"OBJECT_NAME":"METEOSAT-10 (MSG-3)","OBJECT_ID":"2012-035B","EPOCH":"2026-03-05T15:42:39.314016","MEAN_MOTION":1.00267196,"ECCENTRICITY":0.0002522,"INCLINATION":4.4267,"RA_OF_ASC_NODE":61.4584,"ARG_OF_PERICENTER":281.0532,"MEAN_ANOMALY":56.795,"EPHEMERIS_TYPE":0,"CLASSIFICATION_TYPE":"U","NORAD_CAT_ID":38552,"ELEMENT_SET_NO":999,"REV_AT_EPOCH":4981,"BSTAR":0,"MEAN_MOTION_DOT":-1.1e-7,"MEAN_MOTION_DDOT":0},{"OBJECT_NAME":"SARSAT 13 (METOP-B)","OBJECT_ID":"2012-049A","EPOCH":"2026-03-05T17:08:36.356352","MEAN_MOTION":14.21443239,"ECCENTRICITY":0.0001198,"INCLINATION":98.665,"RA_OF_ASC_NODE":118.2136,"ARG_OF_PERICENTER":287.7658,"MEAN_ANOMALY":72.3389,"EPHEMERIS_TYPE":0,"CLASSIFICATION_TYPE":"U","NORAD_CAT_ID":38771,"ELEMENT_SET_NO":999,"REV_AT_EPOCH":69856,"BSTAR":9.6564e-5,"MEAN_MOTION_DOT":1.68e-6,"MEAN_MOTION_DDOT":0},{"OBJECT_NAME":"GPS BIIF-3","OBJECT_ID":"2012-053A","EPOCH":"2026-03-05T02:46:21.230400","MEAN_MOTION":2.00565848,"ECCENTRICITY":0.0176939,"INCLINATION":53.5659,"RA_OF_ASC_NODE":147.8643,"ARG_OF_PERICENTER":64.7787,"MEAN_ANOMALY":297.0919,"EPHEMERIS_TYPE":0,"CLASSIFICATION_TYPE":"U","NORAD_CAT_ID":38833,"ELEMENT_SET_NO":999,"REV_AT_EPOCH":9735,"BSTAR":0,"MEAN_MOTION_DOT":9.0e-8,"MEAN_MOTION_DDOT":0},{"OBJECT_NAME":"GSAT0103 (GALILEO-FM3)","OBJECT_ID":"2012-055A","EPOCH":"2026-03-04T11:26:29.886720","MEAN_MOTION":1.70473427,"ECCENTRICITY":0.00054073,"INCLINATION":55.7384,"RA_OF_ASC_NODE":104.4182,"ARG_OF_PERICENTER":285.364,"MEAN_ANOMALY":74.6606,"EPHEMERIS_TYPE":0,"CLASSIFICATION_TYPE":"U","NORAD_CAT_ID":38857,"ELEMENT_SET_NO":999,"REV_AT_EPOCH":8322,"BSTAR":0,"MEAN_MOTION_DOT":1.2e-7,"MEAN_MOTION_DDOT":0}]
